[{"OBJECT_NAME":"STARLINK-5910","OBJECT_ID":"2023-042Q","EPOCH":"2026-03-09T22:55:07.408704","MEAN_MOTION":15.02514873,"ECCENTRICITY":0.00013502,"INCLINATION":43.004,"RA_OF_ASC_NODE":54.3772,"ARG_OF_PERICENTER":276.301,"MEAN_ANOMALY":83.7679,"EPHEMERIS_TYPE":0,"CLASSIFICATION_TYPE":"U","NORAD_CAT_ID":56000,"ELEMENT_SET_NO":999,"REV_AT_EPOCH":16295,"BSTAR":-0.00016727144,"MEAN_MOTION_DOT":-2.461e-5,"MEAN_MOTION_DDOT":0},{"OBJECT_NAME":"COSMOS 886 DEB","OBJECT_ID":"1976-126AR","EPOCH":"2026-03-09T21:36:12.993696","MEAN_MOTION":13.31800165,"ECCENTRICITY":0.07768266,"INCLINATION":65.8223,"RA_OF_ASC_NODE":335.2921,"ARG_OF_PERICENTER":140.8231,"MEAN_ANOMALY":225.1777,"EPHEMERIS_TYPE":0,"CLASSIFICATION_TYPE":"U","NORAD_CAT_ID":9951,"ELEMENT_SET_NO":999,"REV_AT_EPOCH":4670,"BSTAR":0.00068514651,"MEAN_MOTION_DOT":1.806e-5,"MEAN_MOTION_DDOT":0}]
